#dV2023  2 10 10  0  0.00000000    1682       CTS   FIT  GFZ
## 2248 468000.00000000    30.00000000 59985 0.4166666666667
+    1   L64  0  0  0  0  0  0  0  0  0  0  0  0  0  0  0  0
+          0  0  0  0  0  0  0  0  0  0  0  0  0  0  0  0  0
+          0  0  0  0  0  0  0  0  0  0  0  0  0  0  0  0  0
+          0  0  0  0  0  0  0  0  0  0  0  0  0  0  0  0  0
+          0  0  0  0  0  0  0  0  0  0  0  0  0  0  0  0  0
++         0  0  0  0  0  0  0  0  0  0  0  0  0  0  0  0  0
++         0  0  0  0  0  0  0  0  0  0  0  0  0  0  0  0  0
++         0  0  0  0  0  0  0  0  0  0  0  0  0  0  0  0  0
++         0  0  0  0  0  0  0  0  0  0  0  0  0  0  0  0  0
++         0  0  0  0  0  0  0  0  0  0  0  0  0  0  0  0  0
%c L  cc GPS ccc cccc cccc cccc cccc ccccc ccccc ccccc ccccc
%c cc cc ccc ccc cccc cccc cccc cccc ccccc ccccc ccccc ccccc
%f  0.0000000  0.000000000  0.00000000000  0.000000000000000
%f  0.0000000  0.000000000  0.00000000000  0.000000000000000
%i    0    0    0    0      0      0      0      0         0
%i    0    0    0    0      0      0      0      0         0
/* CCCCCCCCCCCCCCCCCCCCCCCCCCCCCCCCCCCCCCCCCCCCCCCCCCCCCCCCCCCCCCCCCCCCCCCCCCCCC
/* C                             GFZ RSO-ORBIT                                 C
/* C DOI: https://doi.org/10.5880/GFZ_ORBIT/RSO/L64_G_v02                      C
/* C                                                                           C
/* C DORIS        RMS: not applicable                                          C
/* C GNSS-E Code  RMS: not applicable                                          C
/* C GNSS-E Phase RMS: not applicable                                          C
/* C GNSS-G Code  RMS:  52.266 [cm]   Obs.acc.:     13686 Obs.eli.:       991  C
/* C GNSS-G Phase RMS:   4.651 [mm]   Obs.acc.:     13686 Obs.eli.:       991  C
/* C SLR          RMS:   4.404 [cm]   Obs.acc.:        93 Obs.eli.:         0  C
/* C                                                                           C
/* CCCCCCCCCCCCCCCCCCCCCCCCCCCCCCCCCCCCCCCCCCCCCCCCCCCCCCCCCCCCCCCCCCCCCCCCCCCCC
*  2023  2 10 15 57  0.00000000
PL64  -6380.933046   1481.065487  -2058.852296   9236.850572
VL64  22888.994074  -1845.176846 -72753.071306 999999.999999
*  2023  2 10 15 57 30.00000000
PL64  -6308.770049   1474.558144  -2275.926460   9237.310331
VL64  25214.640590  -2494.318649 -71949.671569 999999.999999
*  2023  2 10 15 58  0.00000000
PL64  -6229.676682   1466.092404  -2490.470621   9237.770248
VL64  27508.809490  -3150.630477 -71066.570139 999999.999999
*  2023  2 10 15 58 30.00000000
PL64  -6143.751240   1455.648061  -2702.247224   9238.229586
VL64  29768.932295  -3813.241019 -70104.814607 999999.999999
*  2023  2 10 15 59  0.00000000
PL64  -6051.099657   1443.207547  -2911.021988   9238.689704
VL64  31992.487417  -4481.262034 -69065.541307 999999.999999
*  2023  2 10 15 59 30.00000000
PL64  -5951.835356   1428.755982  -3116.564174   9239.149154
VL64  34177.004260  -5153.789583 -67949.972850 999999.999999
*  2023  2 10 16  0  0.00000000
PL64  -5846.079089   1412.281221  -3318.646834   9239.609130
VL64  36320.065579  -5829.905526 -66759.415720 999999.999999
*  2023  2 10 16  0 30.00000000
PL64  -5733.958781   1393.773891  -3517.047065   9240.068799
VL64  38419.309802  -6508.678664 -65495.258537 999999.999999
*  2023  2 10 16  1  0.00000000
PL64  -5615.609353   1373.227434  -3711.546251   9240.528696
VL64  40472.433416  -7189.166098 -64158.970062 999999.999999
*  2023  2 10 16  1 30.00000000
PL64  -5491.172547   1350.638133  -3901.930299   9240.988324
VL64  42477.193206  -7870.414736 -62752.097305 999999.999999
*  2023  2 10 16  2  0.00000000
PL64  -5360.796740   1326.005146  -4087.989872   9241.447952
VL64  44431.408632  -8551.462620 -61276.263583 999999.999999
*  2023  2 10 16  2 30.00000000
PL64  -5224.636757   1299.330528  -4269.520615   9241.908391
VL64  46332.964218  -9231.339947 -59733.166494 999999.999999
*  2023  2 10 16  3  0.00000000
PL64  -5082.853665   1270.619253  -4446.323375   9242.367884
VL64  48179.812211  -9909.070284 -58124.575682 999999.999999
*  2023  2 10 16  3 30.00000000
PL64  -4935.614571   1239.879234  -4618.204411   9242.827491
VL64  49969.975134 -10583.672353 -56452.329776 999999.999999
*  2023  2 10 16  4  0.00000000
PL64  -4783.092407   1207.121332  -4784.975600   9243.287543
VL64  51701.547383 -11254.161583 -54718.332970 999999.999999
*  2023  2 10 16  4 30.00000000
PL64  -4625.465713   1172.359365  -4946.454623   9243.747478
VL64  53372.695886 -11919.550785 -52924.552353 999999.999999
*  2023  2 10 16  5  0.00000000
PL64  -4462.918418   1135.610116  -5102.465157   9244.206870
VL64  54981.661077 -12578.851154 -51073.016807 999999.999999
*  2023  2 10 16  5 30.00000000
PL64  -4295.639616   1096.893335  -5252.837056   9244.666584
VL64  56526.758973 -13231.074458 -49165.815136 999999.999999
*  2023  2 10 16  6  0.00000000
PL64  -4123.823341   1056.231733  -5397.406526   9245.126503
VL64  58006.382652 -13875.234747 -47205.093343 999999.999999
*  2023  2 10 16  6 30.00000000
PL64  -3947.668325   1013.650972  -5536.016296   9245.586499
VL64  59419.004381 -14510.349446 -45193.052685 999999.999999
*  2023  2 10 16  7  0.00000000
PL64  -3767.377765    969.179659  -5668.515775   9246.046688
VL64  60763.178532 -15135.440986 -43131.946328 999999.999999
*  2023  2 10 16  7 30.00000000
PL64  -3583.159067    922.849321  -5794.761207   9246.505974
VL64  62037.542800 -15749.538608 -41024.074490 999999.999999
*  2023  2 10 16  8  0.00000000
PL64  -3395.223601    874.694385  -5914.615798   9246.965976
VL64  63240.817222 -16351.679340 -38871.780274 999999.999999
*  2023  2 10 16  8 30.00000000
PL64  -3203.786455    824.752157  -6027.949849   9247.425952
VL64  64371.802684 -16940.908262 -36677.448242 999999.999999
*  2023  2 10 16  9  0.00000000
PL64  -3009.066194    773.062793  -6134.640875   9247.885819
VL64  65429.381513 -17516.279266 -34443.504788 999999.999999
*  2023  2 10 16  9 30.00000000
PL64  -2811.284608    719.669275  -6234.573732   9248.345201
VL64  66412.520759 -18076.856464 -32172.417005 999999.999999
*  2023  2 10 16 10  0.00000000
PL64  -2610.666457    664.617373  -6327.640735   9248.805314
VL64  67320.275129 -18621.715905 -29866.688237 999999.999999
*  2023  2 10 16 10 30.00000000
PL64  -2407.439203    607.955609  -6413.741754   9249.265110
VL64  68151.787053 -19149.947202 -27528.852993 999999.999999
*  2023  2 10 16 11  0.00000000
PL64  -2201.832751    549.735214  -6492.784308   9249.724658
VL64  68906.285387 -19660.654692 -25161.473386 999999.999999
*  2023  2 10 16 11 30.00000000
PL64  -1994.079193    490.010085  -6564.683637   9250.184686
VL64  69583.084034 -20152.958174 -22767.137443 999999.999999
*  2023  2 10 16 12  0.00000000
PL64  -1784.412550    428.836733  -6629.362789   9250.644818
VL64  70181.582642 -20625.994167 -20348.458607 999999.999999
*  2023  2 10 16 12 30.00000000
PL64  -1573.068513    366.274233  -6686.752681   9251.104793
VL64  70701.268439 -21078.917597 -17908.072189 999999.999999
*  2023  2 10 16 13  0.00000000
PL64  -1360.284181    302.384167  -6736.792167   9251.564320
VL64  71141.715061 -21510.902628 -15448.631478 999999.999999
*  2023  2 10 16 13 30.00000000
PL64  -1146.297805    237.230562  -6779.428085   9252.024427
VL64  71502.582018 -21921.143508 -12972.806769 999999.999999
*  2023  2 10 16 14  0.00000000
PL64   -931.348525    170.879835  -6814.615308   9252.484498
VL64  71783.615781 -22308.855909 -10483.282715 999999.999999
*  2023  2 10 16 14 30.00000000
PL64   -715.676114    103.400718  -6842.316778   9252.944232
VL64  71984.648805 -22673.278353  -7982.755063 999999.999999
*  2023  2 10 16 15  0.00000000
PL64   -499.520718     34.864193  -6862.503540   9253.403961
VL64  72105.598724 -23013.673649  -5473.929465 999999.999999
*  2023  2 10 16 15 30.00000000
PL64   -283.122604    -34.656584  -6875.154770   9253.864090
VL64  72146.469440 -23329.329761  -2959.520059 999999.999999
*  2023  2 10 16 16  0.00000000
PL64    -66.721892   -105.086360  -6880.257796   9254.323822
VL64  72107.352571 -23619.560512   -442.246263 999999.999999
*  2023  2 10 16 16 30.00000000
PL64    149.441701   -176.347862  -6877.808104   9254.783696
VL64  71988.427632 -23883.706787   2075.171709 999999.999999
*  2023  2 10 16 17  0.00000000
PL64    365.129128   -248.361884  -6867.809339   9255.243306
VL64  71789.960385 -24121.137733   4590.016799 999999.999999
*  2023  2 10 16 17 30.00000000
PL64    580.102268   -321.047370  -6850.273289   9255.703531
VL64  71512.300541 -24331.251816   7099.576539 999999.999999
*  2023  2 10 16 18  0.00000000
PL64    794.124170   -394.321506  -6825.219873   9256.163286
VL64  71155.881934 -24513.478036   9601.143543 999999.999999
*  2023  2 10 16 18 30.00000000
PL64   1006.959317   -468.099810  -6792.677119   9256.623233
VL64  70721.223622 -24667.276806  12092.019392 999999.999999
*  2023  2 10 16 19  0.00000000
PL64   1218.373871   -542.296231  -6752.681133   9257.082779
VL64  70208.927655 -24792.140201  14569.519348 999999.999999
*  2023  2 10 16 19 30.00000000
PL64   1428.135924   -616.823239  -6705.276050   9257.542786
VL64  69619.676174 -24887.592238  17030.973142 999999.999999
*  2023  2 10 16 20  0.00000000
PL64   1636.015733   -691.591929  -6650.513997   9258.002468
VL64  68954.231690 -24953.190147  19473.724424 999999.999999
*  2023  2 10 16 20 30.00000000
PL64   1841.785964   -766.512117  -6588.455046   9258.462853
VL64  68213.439410 -24988.526546  21895.133189 999999.999999
*  2023  2 10 16 21  0.00000000
PL64   2045.221947   -841.492455  -6519.167159   9258.922205
VL64  67398.227350 -24993.231081  24292.581677 999999.999999
*  2023  2 10 16 21 30.00000000
PL64   2246.101913   -916.440537  -6442.726108   9259.382209
VL64  66509.602861 -24966.970085  26663.478916 999999.999999
*  2023  2 10 16 22  0.00000000
PL64   2444.207233   -991.263011  -6359.215401   9259.842123
VL64  65548.650048 -24909.445655  29005.261630 999999.999999
EOF
